CCSDS_OMM_VERS = 2.0
CREATION_DATE  = 
ORIGINATOR     = 

OBJECT_NAME    = ARIANE 40 R/B
OBJECT_ID      = 1990-005H
CENTER_NAME    = EARTH
REF_FRAME      = TEME
TIME_SYSTEM    = UTC
MEAN_ELEMENT_THEORY = SGP/SGP4

EPOCH          = 2025-11-29T04:30:18.639072
MEAN_MOTION    = 14.39782389
ECCENTRICITY   = .00109029
INCLINATION    = 98.3262
RA_OF_ASC_NODE = 31.7476
ARG_OF_PERICENTER = 142.7733
MEAN_ANOMALY   = 217.4214

EPHEMERIS_TYPE = 0
CLASSIFICATION_TYPE = U
NORAD_CAT_ID   = 20443
ELEMENT_SET_NO = 999
REV_AT_EPOCH   = 87834
BSTAR          = .12591404E-3
MEAN_MOTION_DOT = .353E-5
MEAN_MOTION_DDOT = 0

CCSDS_OMM_VERS = 2.0
CREATION_DATE  = 
ORIGINATOR     = 

OBJECT_NAME    = DELTA 2 R/B(1)
OBJECT_ID      = 1990-008B
CENTER_NAME    = EARTH
REF_FRAME      = TEME
TIME_SYSTEM    = UTC
MEAN_ELEMENT_THEORY = SGP/SGP4

EPOCH          = 2025-11-28T11:09:48.066624
MEAN_MOTION    = 15.43764727
ECCENTRICITY   = .01134723
INCLINATION    = 35.6050
RA_OF_ASC_NODE = 112.6067
ARG_OF_PERICENTER = 47.8588
MEAN_ANOMALY   = 313.1721

EPHEMERIS_TYPE = 0
CLASSIFICATION_TYPE = U
NORAD_CAT_ID   = 20453
ELEMENT_SET_NO = 999
REV_AT_EPOCH   = 91042
BSTAR          = .66801085E-3
MEAN_MOTION_DOT = .39835E-3
MEAN_MOTION_DDOT = 0

CCSDS_OMM_VERS = 2.0
CREATION_DATE  = 
ORIGINATOR     = 

OBJECT_NAME    = COSMOS 2058
OBJECT_ID      = 1990-010A
CENTER_NAME    = EARTH
REF_FRAME      = TEME
TIME_SYSTEM    = UTC
MEAN_ELEMENT_THEORY = SGP/SGP4

EPOCH          = 2025-11-28T23:28:00.708672
MEAN_MOTION    = 15.10282390
ECCENTRICITY   = .00090047
INCLINATION    = 82.4630
RA_OF_ASC_NODE = 146.5691
ARG_OF_PERICENTER = 330.2051
MEAN_ANOMALY   = 29.8664

EPHEMERIS_TYPE = 0
CLASSIFICATION_TYPE = U
NORAD_CAT_ID   = 20465
ELEMENT_SET_NO = 999
REV_AT_EPOCH   = 92703
BSTAR          = .28748047E-3
MEAN_MOTION_DOT = .4737E-4
MEAN_MOTION_DDOT = 0

CCSDS_OMM_VERS = 2.0
CREATION_DATE  = 
ORIGINATOR     = 

OBJECT_NAME    = SL-14 R/B
OBJECT_ID      = 1990-010B
CENTER_NAME    = EARTH
REF_FRAME      = TEME
TIME_SYSTEM    = UTC
MEAN_ELEMENT_THEORY = SGP/SGP4

EPOCH          = 2025-11-29T07:44:30.905088
MEAN_MOTION    = 14.83451659
ECCENTRICITY   = .00182639
INCLINATION    = 82.5028
RA_OF_ASC_NODE = 1.6488
ARG_OF_PERICENTER = 270.6900
MEAN_ANOMALY   = 89.2222

EPHEMERIS_TYPE = 0
CLASSIFICATION_TYPE = U
NORAD_CAT_ID   = 20466
ELEMENT_SET_NO = 999
REV_AT_EPOCH   = 91360
BSTAR          = .53487819E-4
MEAN_MOTION_DOT = .464E-5
MEAN_MOTION_DDOT = 0

CCSDS_OMM_VERS = 2.0
CREATION_DATE  = 
ORIGINATOR     = 

OBJECT_NAME    = SL-14 R/B
OBJECT_ID      = 1990-018B
CENTER_NAME    = EARTH
REF_FRAME      = TEME
TIME_SYSTEM    = UTC
MEAN_ELEMENT_THEORY = SGP/SGP4

EPOCH          = 2025-11-29T07:28:29.522784
MEAN_MOTION    = 14.82024426
ECCENTRICITY   = .00178557
INCLINATION    = 82.5200
RA_OF_ASC_NODE = 316.9169
ARG_OF_PERICENTER = 64.8447
MEAN_ANOMALY   = 295.4617

EPHEMERIS_TYPE = 0
CLASSIFICATION_TYPE = U
NORAD_CAT_ID   = 20511
ELEMENT_SET_NO = 999
REV_AT_EPOCH   = 90771
BSTAR          = .63323652E-4
MEAN_MOTION_DOT = .527E-5
MEAN_MOTION_DDOT = 0

CCSDS_OMM_VERS = 2.0
CREATION_DATE  = 
ORIGINATOR     = 

OBJECT_NAME    = HST
OBJECT_ID      = 1990-037B
CENTER_NAME    = EARTH
REF_FRAME      = TEME
TIME_SYSTEM    = UTC
MEAN_ELEMENT_THEORY = SGP/SGP4

EPOCH          = 2025-11-29T04:56:43.240128
MEAN_MOTION    = 15.27762687
ECCENTRICITY   = .00021093
INCLINATION    = 28.4702
RA_OF_ASC_NODE = 4.5841
ARG_OF_PERICENTER = 94.2560
MEAN_ANOMALY   = 265.8276

EPHEMERIS_TYPE = 0
CLASSIFICATION_TYPE = U
NORAD_CAT_ID   = 20580
ELEMENT_SET_NO = 999
REV_AT_EPOCH   = 75792
BSTAR          = .28420462E-3
MEAN_MOTION_DOT = .8158E-4
MEAN_MOTION_DDOT = 0

CCSDS_OMM_VERS = 2.0
CREATION_DATE  = 
ORIGINATOR     = 

OBJECT_NAME    = SL-16 R/B
OBJECT_ID      = 1990-046B
CENTER_NAME    = EARTH
REF_FRAME      = TEME
TIME_SYSTEM    = UTC
MEAN_ELEMENT_THEORY = SGP/SGP4

EPOCH          = 2025-11-28T21:21:51.659136
MEAN_MOTION    = 14.14994538
ECCENTRICITY   = .00121345
INCLINATION    = 70.9967
RA_OF_ASC_NODE = 149.6066
ARG_OF_PERICENTER = 99.2703
MEAN_ANOMALY   = 260.9792

EPHEMERIS_TYPE = 0
CLASSIFICATION_TYPE = U
NORAD_CAT_ID   = 20625
ELEMENT_SET_NO = 999
REV_AT_EPOCH   = 83413
BSTAR          = .21541067E-3
MEAN_MOTION_DOT = .37E-5
MEAN_MOTION_DDOT = 0

CCSDS_OMM_VERS = 2.0
CREATION_DATE  = 
ORIGINATOR     = 

OBJECT_NAME    = COSMOS 2084
OBJECT_ID      = 1990-055A
CENTER_NAME    = EARTH
REF_FRAME      = TEME
TIME_SYSTEM    = UTC
MEAN_ELEMENT_THEORY = SGP/SGP4

EPOCH          = 2025-11-29T06:41:42.445536
MEAN_MOTION    = 15.04886490
ECCENTRICITY   = .00337988
INCLINATION    = 62.7912
RA_OF_ASC_NODE = 317.8546
ARG_OF_PERICENTER = 173.0797
MEAN_ANOMALY   = 187.0777

EPHEMERIS_TYPE = 0
CLASSIFICATION_TYPE = U
NORAD_CAT_ID   = 20663
ELEMENT_SET_NO = 999
REV_AT_EPOCH   = 92120
BSTAR          = .20834103E-3
MEAN_MOTION_DOT = .2792E-4
MEAN_MOTION_DDOT = 0

CCSDS_OMM_VERS = 2.0
CREATION_DATE  = 
ORIGINATOR     = 

OBJECT_NAME    = SL-6 R/B(2)
OBJECT_ID      = 1990-055D
CENTER_NAME    = EARTH
REF_FRAME      = TEME
TIME_SYSTEM    = UTC
MEAN_ELEMENT_THEORY = SGP/SGP4

EPOCH          = 2025-11-29T03:05:11.926464
MEAN_MOTION    = 15.02980373
ECCENTRICITY   = .00115555
INCLINATION    = 62.7829
RA_OF_ASC_NODE = 235.6601
ARG_OF_PERICENTER = 298.0247
MEAN_ANOMALY   = 61.9682

EPHEMERIS_TYPE = 0
CLASSIFICATION_TYPE = U
NORAD_CAT_ID   = 20666
ELEMENT_SET_NO = 999
REV_AT_EPOCH   = 92307
BSTAR          = .19586612E-3
MEAN_MOTION_DOT = .2453E-4
MEAN_MOTION_DDOT = 0

CCSDS_OMM_VERS = 2.0
CREATION_DATE  = 
ORIGINATOR     = 

OBJECT_NAME    = SL-8 R/B
OBJECT_ID      = 1990-078B
CENTER_NAME    = EARTH
REF_FRAME      = TEME
TIME_SYSTEM    = UTC
MEAN_ELEMENT_THEORY = SGP/SGP4

EPOCH          = 2025-11-29T03:00:06.675264
MEAN_MOTION    = 14.85081212
ECCENTRICITY   = .0376419
INCLINATION    = 82.9056
RA_OF_ASC_NODE = 341.4897
ARG_OF_PERICENTER = 351.6296
MEAN_ANOMALY   = 7.8745

EPHEMERIS_TYPE = 0
CLASSIFICATION_TYPE = U
NORAD_CAT_ID   = 20775
ELEMENT_SET_NO = 999
REV_AT_EPOCH   = 79435
BSTAR          = .83110597E-3
MEAN_MOTION_DOT = .2683E-3
MEAN_MOTION_DDOT = 0

CCSDS_OMM_VERS = 2.0
CREATION_DATE  = 
ORIGINATOR     = 

OBJECT_NAME    = SL-8 R/B
OBJECT_ID      = 1991-006B
CENTER_NAME    = EARTH
REF_FRAME      = TEME
TIME_SYSTEM    = UTC
MEAN_ELEMENT_THEORY = SGP/SGP4

EPOCH          = 2025-11-29T07:48:05.445792
MEAN_MOTION    = 13.77487743
ECCENTRICITY   = .0021701
INCLINATION    = 82.9429
RA_OF_ASC_NODE = 244.6902
ARG_OF_PERICENTER = 319.4389
MEAN_ANOMALY   = 161.5505

EPHEMERIS_TYPE = 0
CLASSIFICATION_TYPE = U
NORAD_CAT_ID   = 21088
ELEMENT_SET_NO = 999
REV_AT_EPOCH   = 75025
BSTAR          = .68829041E-4
MEAN_MOTION_DOT = .84E-6
MEAN_MOTION_DDOT = 0

CCSDS_OMM_VERS = 2.0
CREATION_DATE  = 
ORIGINATOR     = 

OBJECT_NAME    = OKEAN-3
OBJECT_ID      = 1991-039A
CENTER_NAME    = EARTH
REF_FRAME      = TEME
TIME_SYSTEM    = UTC
MEAN_ELEMENT_THEORY = SGP/SGP4

EPOCH          = 2025-11-29T07:26:10.603680
MEAN_MOTION    = 15.03982259
ECCENTRICITY   = .00135635
INCLINATION    = 82.5177
RA_OF_ASC_NODE = 74.0437
ARG_OF_PERICENTER = 315.1325
MEAN_ANOMALY   = 44.8804

EPHEMERIS_TYPE = 0
CLASSIFICATION_TYPE = U
NORAD_CAT_ID   = 21397
ELEMENT_SET_NO = 999
REV_AT_EPOCH   = 84994
BSTAR          = .26297032E-3
MEAN_MOTION_DOT = .3664E-4
MEAN_MOTION_DDOT = 0

