ARIANE 40 R/B           
1 20443U 90005H   25333.18771573  .00000353  00000+0  12591-3 0  9993
2 20443  98.3262  31.7476 0010902 142.7733 217.4214 14.39782389878347
DELTA 2 R/B(1)          
1 20453U 90008B   25332.46513966  .00039835  00000+0  66801-3 0  9997
2 20453  35.6050 112.6067 0113472  47.8588 313.1721 15.43764727910426
COSMOS 2058             
1 20465U 90010A   25332.97778598  .00004737  00000+0  28748-3 0  9994
2 20465  82.4630 146.5691 0009004 330.2051  29.8664 15.10282390927038
SL-14 R/B               
1 20466U 90010B   25333.32257992  .00000464  00000+0  53488-4 0  9998
2 20466  82.5028   1.6488 0018263 270.6900  89.2222 14.83451659913606
SL-14 R/B               
1 20511U 90018B   25333.31145281  .00000527  00000+0  63324-4 0  9993
2 20511  82.5200 316.9169 0017855  64.8447 295.4617 14.82024426907713
HST                     
1 20580U 90037B   25333.20605602  .00008158  00000+0  28420-3 0  9991
2 20580  28.4702   4.5841 0002109  94.2560 265.8276 15.27762687757927
SL-16 R/B               
1 20625U 90046B   25332.89018124  .00000370  00000+0  21541-3 0  9997
2 20625  70.9967 149.6066 0012134  99.2703 260.9792 14.14994538834130
COSMOS 2084             
1 20663U 90055A   25333.27896349  .00002792  00000+0  20834-3 0  9999
2 20663  62.7912 317.8546 0033798 173.0797 187.0777 15.04886490921200
SL-6 R/B(2)             
1 20666U 90055D   25333.12861026  .00002453  00000+0  19587-3 0  9997
2 20666  62.7829 235.6601 0011555 298.0247  61.9682 15.02980373923079
SL-8 R/B                
1 20775U 90078B   25333.12507726  .00026830  00000+0  83111-3 0  9996
2 20775  82.9056 341.4897 0376419 351.6296   7.8745 14.85081212794352
SL-8 R/B                
1 21088U 91006B   25333.32506303  .00000084  00000+0  68829-4 0  9991
2 21088  82.9429 244.6902 0021701 319.4389 161.5505 13.77487743750253
OKEAN-3                 
1 21397U 91039A   25333.30984495  .00003664  00000+0  26297-3 0  9999
2 21397  82.5177  74.0437 0013563 315.1325  44.8804 15.03982259849943
